LVM3 R/B                
1 66310U 25249A   25335.33935941  .00047432 -36454-6  12816-2 0  9992
2 66310  21.3490 143.9958 6668793 208.0487  89.1049  3.14269232   924
CMS-03 (GSAT-7R)        
1 66311U 25249B   25335.77128029 -.00000236  00000+0  00000+0 0  9993
2 66311   0.1686 272.0212 0004036 195.9714 334.0392  1.00268692   373
YAOGAN-46               
1 66313U 25250A   25327.07225435 -.00000007  00000+0  00000+0 0  9996
2 66313  20.0335 104.8243 0049237 135.6954 224.7061  5.35115916  1148
SENTINEL-1D             
1 66315U 25251A   25335.75418414  .00000242  00000+0  60223-4 0  9992
2 66315  98.1925 340.9287 0002540 157.3618 202.7695 14.59909281  3936
QPS-SAR-14 (YACHIHOKO-I)
1 66316U 25252A   25335.73195251  .00006104  00000+0  52966-3 0  9990
2 66316  42.0031 135.7309 0006941  73.6680 286.4907 14.97512808  3882
ELECTRON R/B            
1 66317U 25252B   25333.88053486  .01669799  79110-5  19143-2 0  9997
2 66317  41.9889 130.1303 0124668  46.1701 314.9386 15.94243293  3785
STARLINK-35442          
1 66319U 25253A   25335.83335647  .00031739  00000+0  76419-3 0  9991
2 66319  43.0008  48.7238 0001499 268.8576 227.3277 15.40688878  5278
STARLINK-34616          
1 66320U 25253B   25335.53659347  .00096659  00000+0  16322-2 0  9994
2 66320  43.0003  50.2572 0002030 284.6496  75.4139 15.50595365  5271
STARLINK-34615          
1 66321U 25253C   25335.55675007  .00159038  00000+0  16579-2 0  9993
2 66321  42.9996  49.5325 0002377   5.4675 354.6216 15.63263158  5207
STARLINK-35292          
1 66322U 25253D   25335.25002315 -.00414603  00000+0 -10396-1 0  9991
2 66322  43.0008  51.9925 0002202 282.3743 251.7766 15.40900734  5082
STARLINK-35309          
1 66323U 25253E   25335.59826058  .00099939  00000+0  16871-2 0  9991
2 66323  43.0003  49.8592 0002132 250.9750 109.0879 15.50587461  5208
STARLINK-35506          
1 66324U 25253F   25335.21314654  .00167285  00000+0  27895-2 0  9993
2 66324  42.9999  52.1305 0001459 261.0822  98.9873 15.50651952  5144
